NORAD_CAT_ID,OBJECT_NAME,OBJECT_TYPE,EPOCH,MEAN_MOTION,ECCENTRICITY,INCLINATION,RA_OF_ASC_NODE,ARG_OF_PERICENTER,MEAN_ANOMALY,BSTAR,MEAN_MOTION_DOT,MEAN_MOTION_DDOT,TLE_LINE0,TLE_LINE1,TLE_LINE2,SEMIMAJOR_AXIS,PERIOD,APOGEE,PERIGEE,DECAYED
49156.0,STARLINK-3085,PAYLOAD,2023-01-03 02:52:42,14.98325133,0.0002945,70.0,303.1785,281.7143,78.3686,0.00031012,3.609e-05,0.0,0 STARLINK-3085,1 49156U 21082AC  23003.11993473  .00003609  00000-0  31012-3 0  9991,2 49156  70.0000 303.1785 0002945 281.7143  78.3686 14.98325133 74050,6950.208000000001,96.107,574.12,570.026,0.0
49156.0,STARLINK-3085,PAYLOAD,2023-01-03 07:41:07,14.98319606,0.00031,70.0005,302.6734,287.5957,72.4864,0.0001230999999999,1.376e-05,0.0,0 STARLINK-3085,1 49156U 21082AC  23003.32022458  .00001376  00000-0  12310-3 0  9999,2 49156  70.0005 302.6734 0003100 287.5957  72.4864 14.98319606 74088,6950.225,96.108,574.245,569.935,0.0
49156.0,STARLINK-3085,PAYLOAD,2023-01-03 12:29:31,14.98320173,0.000328,69.9997,302.1686,287.3657,72.7143,0.00023154,2.67e-05,0.0,0 STARLINK-3085,1 49156U 21082AC  23003.52050368  .00002670  00000-0  23154-3 0  9998,2 49156  69.9997 302.1686 0003280 287.3657  72.7143 14.98320173 74118,6950.223000000001,96.108,574.368,569.809,0.0
49156.0,STARLINK-3085,PAYLOAD,2023-01-03 23:42:27,14.98327598,0.0003234,69.9999,300.9903,287.1182,72.9623,0.00022566,2.6e-05,0.0,0 STARLINK-3085,1 49156U 21082AC  23003.98782198  .00002600  00000-0  22566-3 0  9990,2 49156  69.9999 300.9903 0003234 287.1182  72.9623 14.98327598 74188,6950.2,96.107,574.313,569.818,0.0
49156.0,STARLINK-3085,PAYLOAD,2023-01-04 12:31:32,14.98336047,0.0002957,70.002,299.6431,290.0204,70.0636,0.00028322,3.288e-05,0.0,0 STARLINK-3085,1 49156U 21082AC  23004.52189912  .00003288  00000-0  28322-3 0  9995,2 49156  70.0020 299.6431 0002957 290.0204  70.0636 14.98336047 74266,6950.174,96.107,574.094,569.984,0.0
49156.0,STARLINK-3085,PAYLOAD,2023-01-05 01:20:35,14.98345516,0.0003245,70.0033,298.2953,291.1040000000001,68.9772,0.00039439,4.618e-05,0.0,0 STARLINK-3085,1 49156U 21082AC  23005.05597162  .00004618  00000-0  39439-3 0  9993,2 49156  70.0033 298.2953 0003245 291.1040  68.9772 14.98345516 74342,6950.145,96.106,574.265,569.755,0.0
49156.0,STARLINK-3085,PAYLOAD,2023-01-05 12:33:31,14.9835633,0.0003174999999999,70.0021,297.1167,289.2664,70.8152,0.00037249,4.357e-05,0.0,0 STARLINK-3085,1 49156U 21082AC  23005.52328144  .00004357  00000-0  37249-3 0  9994,2 49156  70.0021 297.1167 0003175 289.2664  70.8152 14.98356330 74414,6950.111,96.105,574.183,569.77,0.0
49156.0,STARLINK-3085,PAYLOAD,2023-01-06 07:47:09,14.98323441,0.0003264,70.0013,295.098,284.987,75.0928,-0.0002841,-3.481e-05,0.0,0 STARLINK-3085,1 49156U 21082AC  23006.32441184 -.00003481  00000-0 -28410-3 0  9992,2 49156  70.0013 295.0980 0003264 284.9870  75.0928 14.98323441 74533,6950.213000000002,96.107,574.347,569.81,0.0
49156.0,STARLINK-3085,PAYLOAD,2023-01-06 19:00:05,14.9832215,0.0003207,70.0014,293.9198,287.5923,72.4886,-0.00025612,-3.147e-05,0.0,0 STARLINK-3085,1 49156U 21082AC  23006.79173519 -.00003147  00000-0 -25612-3 0  9997,2 49156  70.0014 293.9198 0003207 287.5923  72.4886 14.98322150 74605,6950.217,96.108,574.311,569.8530000000002,0.0
49156.0,STARLINK-3085,PAYLOAD,2023-01-07 01:24:37,14.98329453,0.0003135,70.0015,293.2465,288.4536,71.6282,-0.00014995,-1.882e-05,0.0,0 STARLINK-3085,1 49156U 21082AC  23007.05877239 -.00001882  00000-0 -14995-3 0  9993,2 49156  70.0015 293.2465 0003135 288.4536  71.6282 14.98329453 74644,6950.195,96.107,574.238,569.881,0.0
49156.0,STARLINK-3085,PAYLOAD,2023-01-07 04:36:54,14.98331968,0.0003111,70.0016,292.91,289.3344,70.7478,-6.318e-05,-8.47e-06,0.0,0 STARLINK-3085,1 49156U 21082AC  23007.19229182 -.00000847  00000-0 -63180-4 0  9997,2 49156  70.0016 292.9100 0003111 289.3344  70.7478 14.98331968 74661,6950.187,96.107,574.214,569.89,0.0
49156.0,STARLINK-3085,PAYLOAD,2023-01-07 06:13:02,14.98333643,0.000312,70.0016,292.7417,289.1415,70.9407,-1.332e-05,-2.52e-06,0.0,0 STARLINK-3085,1 49156U 21082AC  23007.25905116 -.00000252  00000-0 -13320-4 0  9993,2 49156  70.0016 292.7417 0003120 289.1415  70.9407 14.98333643 74674,6950.182,96.107,574.215,569.878,0.0
49156.0,STARLINK-3085,PAYLOAD,2023-01-08 06:15:03,14.98331962,0.0003092,70.0019,290.2173,288.5278,71.5545,0.00036797,4.301e-05,0.0,0 STARLINK-3085,1 49156U 21082AC  23008.26045719  .00004301  00000-0  36797-3 0  9998,2 49156  70.0019 290.2173 0003092 288.5278  71.5545 14.98331962 74826,6950.187,96.107,574.201,569.903,0.0
49156.0,STARLINK-3085,PAYLOAD,2023-01-08 17:27:59,14.9833975,0.0003122,70.0017,289.0393,289.4314,70.6507,0.00051461,6.054e-05,0.0,0 STARLINK-3085,1 49156U 21082AC  23008.72777464  .00006054  00000-0  51461-3 0  9990,2 49156  70.0017 289.0393 0003122 289.4314  70.6507 14.98339750 74897,6950.163000000001,96.106,574.198,569.8580000000002,0.0
49156.0,STARLINK-3085,PAYLOAD,2023-01-09 11:05:28,14.98332843,0.0003191,70.0016,287.188,289.0793,71.002,6.6201e-05,6.97e-06,0.0,0 STARLINK-3085,1 49156U 21082AC  23009.46213389  .00000697  00000-0  66201-4 0  9999,2 49156  70.0016 287.1880 0003191 289.0793  71.0020 14.98332843 75004,6950.184,96.107,574.2669999999998,569.831,0.0
49156.0,STARLINK-3085,PAYLOAD,2023-01-10 11:07:29,14.98328585,0.0003172,70.0005,284.6628,290.211,69.8708,-9.2632e-05,-1.198e-05,0.0,0 STARLINK-3085,1 49156U 21082AC  23010.46353437 -.00001198  00000-0 -92632-4 0  9996,2 49156  70.0005 284.6628 0003172 290.2110  69.8708 14.98328585 75152,6950.196999999999,96.107,574.2669999999998,569.8580000000002,0.0
49156.0,STARLINK-3085,PAYLOAD,2023-01-11 03:08:49,14.98343023,0.0003433,70.0007,282.98,282.5786,77.4989,0.00023435,2.705e-05,0.0,0 STARLINK-3085,1 49156U 21082AC  23011.13112505  .00002705  00000-0  23435-3 0  9997,2 49156  70.0007 282.9800 0003433 282.5786  77.4989 14.98343023 75251,6950.153,96.106,574.404,569.632,0.0
49156.0,STARLINK-3085,PAYLOAD,2023-01-11 11:09:29,14.983375400000002,0.0003265,70.0012,282.1373,291.1926,68.8884,0.00022291,2.568e-05,0.0,0 STARLINK-3085,1 49156U 21082AC  23011.46492801  .00002568  00000-0  22291-3 0  9999,2 49156  70.0012 282.1373 0003265 291.1926  68.8884 14.98337540 75300,6950.17,96.107,574.304,569.765,0.0
49156.0,STARLINK-3085,PAYLOAD,2023-01-11 17:34:01,14.98338803,0.0003405,70.0032,281.4629,296.2589,63.822,0.00012994,1.458e-05,0.0,0 STARLINK-3085,1 49156U 21082AC  23011.73196365  .00001458  00000-0  12994-3 0  9991,2 49156  70.0032 281.4629 0003405 296.2589  63.8220 14.98338803 75341,6950.166,96.106,574.3969999999998,569.664,0.0
49156.0,STARLINK-3085,PAYLOAD,2023-01-12 11:11:30,14.98340917,0.0003358,70.0009,279.6133,290.0029,70.0768,0.00020448,2.348e-05,0.0,0 STARLINK-3085,1 49156U 21082AC  23012.46632158  .00002348  00000-0  20448-3 0  9999,2 49156  70.0009 279.6133 0003358 290.0029  70.0768 14.98340917 75450,6950.1590000000015,96.106,574.3580000000002,569.69,0.0
49156.0,STARLINK-3085,PAYLOAD,2023-01-12 22:24:26,14.98337117,0.0003046,70.0019,278.435,291.0306,69.0527,8.8942e-05,9.69e-06,0.0,0 STARLINK-3085,1 49156U 21082AC  23012.93364279  .00000969  00000-0  88942-4 0  9998,2 49156  70.0019 278.4350 0003046 291.0306  69.0527 14.98337117 75529,6950.170999999999,96.107,574.153,569.919,0.0
49156.0,STARLINK-3085,PAYLOAD,2023-01-13 03:12:51,14.98338379,0.0002957,70.0025,277.9302,300.951,59.1358,5.6496e-05,5.81e-06,0.0,0 STARLINK-3085,1 49156U 21082AC  23013.13392376  .00000581  00000-0  56496-4 0  9999,2 49156  70.0025 277.9302 0002957 300.9510  59.1358 14.98338379 75550,6950.167,96.106,574.087,569.977,0.0
49156.0,STARLINK-3085,PAYLOAD,2023-01-14 03:14:53,14.983154,0.0003292,70.0005,275.4051,284.2487,75.8306,-8.266700000000001e-05,-1.079e-05,0.0,0 STARLINK-3085,1 49156U 21082AC  23014.13534243 -.00001079  00000-0 -82667-4 0  9995,2 49156  70.0005 275.4051 0003292 284.2487  75.8306 14.98315400 75707,6950.238,96.108,574.391,569.815,0.0
49156.0,STARLINK-3085,PAYLOAD,2023-01-14 17:40:06,14.98326892,0.0003302,70.0005,273.8903,282.3881,77.6908,0.00042933,5.033e-05,0.0,0 STARLINK-3085,1 49156U 21082AC  23014.73618319  .00005033  00000-0  42933-3 0  9991,2 49156  70.0005 273.8903 0003302 282.3881  77.6908 14.98326892 75798,6950.203,96.107,574.362,569.773,0.0
49156.0,STARLINK-3085,PAYLOAD,2023-01-15 03:16:54,14.98349637,0.0003239,70.0006,272.8799,281.6188,78.4608,0.0015401,0.00018341,0.0,0 STARLINK-3085,1 49156U 21082AC  23015.13674214  .00018341  00000-0  15401-2 0  9997,2 49156  70.0006 272.8799 0003239 281.6188  78.4608 14.98349637 75857,6950.132,96.106,574.248,569.746,0.0
49156.0,STARLINK-3085,PAYLOAD,2023-01-15 19:18:14,14.98348216,0.0003373,70.0008,271.1968,277.9519,82.1257,0.00077259,9.142e-05,0.0,0 STARLINK-3085,1 49156U 21082AC  23015.80433922  .00009142  00000-0  77259-3 0  9999,2 49156  70.0008 271.1968 0003373 277.9519  82.1257 14.98348216 75959,6950.137,96.106,574.346,569.6569999999999,0.0
49156.0,STARLINK-3085,PAYLOAD,2023-01-15 20:54:22,14.98357052,0.0003201,70.0006,271.028,279.1528,80.9269,0.0012916,0.00015363,0.0,0 STARLINK-3085,1 49156U 21082AC  23015.87109815  .00015363  00000-0  12916-2 0  9997,2 49156  70.0006 271.0280 0003201 279.1528  80.9269 14.98357052 75965,6950.109,96.105,574.1990000000001,569.75,0.0
49156.0,STARLINK-3085,PAYLOAD,2023-01-16 03:18:54,14.98368381,0.0003243999999999,70.0008,270.355,276.1033,83.9756,0.001713,0.00020426,0.0,0 STARLINK-3085,1 49156U 21082AC  23016.13813277  .00020426  00000-0  17130-2 0  9990,2 49156  70.0008 270.3550 0003244 276.1033  83.9756 14.98368381 76001,6950.0740000000005,96.105,574.194,569.685,0.0
49156.0,STARLINK-3085,PAYLOAD,2023-01-16 09:43:27,14.98336011,0.0003063999999999,70.0008,269.6814,269.0852,90.9956,0.00097175,0.00011523,0.0,0 STARLINK-3085,1 49156U 21082AC  23016.40517555  .00011523  00000-0  97175-3 0  9996,2 49156  70.0008 269.6814 0003064 269.0852  90.9956 14.98336011 76044,6950.174,96.107,574.169,569.91,0.0
